NORAD_CAT_ID,OBJECT_NAME,OBJECT_TYPE,EPOCH,MEAN_MOTION,ECCENTRICITY,INCLINATION,RA_OF_ASC_NODE,ARG_OF_PERICENTER,MEAN_ANOMALY,BSTAR,MEAN_MOTION_DOT,MEAN_MOTION_DDOT,TLE_LINE0,TLE_LINE1,TLE_LINE2,SEMIMAJOR_AXIS,PERIOD,APOGEE,PERIGEE,DECAYED
49438.0,STARLINK-3044,PAYLOAD,2023-06-04 01:17:54,15.08843683,0.0001018,53.2182,61.4803,107.6998,252.4105,0.0001087,1.443e-05,0.0,0 STARLINK-3044,1 49438U 21104AG  23155.05410302  .00001443  00000-0  10870-3 0  9998,2 49438  53.2182  61.4803 0001018 107.6998 252.4105 15.08843683 87564,6917.869,95.437,540.438,539.03,0.0
49438.0,STARLINK-3044,PAYLOAD,2023-06-04 02:53:17,15.08844941,9.96e-05,53.2182,61.1827,102.4664,257.6439,0.00011742,1.582e-05,0.0,0 STARLINK-3044,1 49438U 21104AG  23155.12034221  .00001582  00000-0  11742-3 0  9991,2 49438  53.2182  61.1827 0000996 102.4664 257.6439 15.08844941 86502,6917.865,95.437,540.419,539.041,0.0
49438.0,STARLINK-3044,PAYLOAD,2023-06-04 21:57:55,15.08840754,9.76e-05,53.2186,57.614,95.2938,264.8166,0.00015625,2.2e-05,0.0,0 STARLINK-3044,1 49438U 21104AG  23155.91522451  .00002200  00000-0  15625-3 0  9997,2 49438  53.2186  57.6140 0000976  95.2938 264.8166 15.08840754 86623,6917.878,95.438,540.418,539.068,0.0
49438.0,STARLINK-3044,PAYLOAD,2023-06-05 02:44:04,15.08849304,0.0001021,53.2188,56.7217,89.8404,270.2705,0.00022425,3.284e-05,0.0,0 STARLINK-3044,1 49438U 21104AG  23156.11393860  .00003284  00000-0  22425-3 0  9999,2 49438  53.2188  56.7217 0001021  89.8404 270.2705 15.08849304 87721,6917.852,95.437,540.423,539.011,0.0
49438.0,STARLINK-3044,PAYLOAD,2023-06-05 10:41:00,15.08837462,0.0001193,53.2185,55.2358,81.2229,278.8898,9.6543e-05,1.249e-05,0.0,0 STARLINK-3044,1 49438U 21104AG  23156.44515020  .00001249  00000-0  96543-4 0  9991,2 49438  53.2185  55.2358 0001193  81.2229 278.8898 15.08837462 87773,6917.888,95.438,540.578,538.928,0.0
49438.0,STARLINK-3044,PAYLOAD,2023-06-05 17:02:33,15.08840033,0.0001257,53.2179,54.0465,79.8631,280.2503,-1.6195e-05,-5.46e-06,0.0,0 STARLINK-3044,1 49438U 21104AG  23156.71010794 -.00000546  00000-0 -16195-4 0  9995,2 49438  53.2179  54.0465 0001257  79.8631 280.2503 15.08840033 86747,6917.88,95.438,540.615,538.876,0.0
49438.0,STARLINK-3044,PAYLOAD,2023-06-06 02:34:51,15.08845668,0.0001103,53.2191,52.2607,89.0072,271.1047,4.9391e-05,4.98e-06,0.0,0 STARLINK-3044,1 49438U 21104AG  23157.10754563  .00000498  00000-0  49391-4 0  9996,2 49438  53.2191  52.2607 0001103  89.0072 271.1047 15.08845668 86809,6917.863,95.437,540.491,538.965,0.0
49438.0,STARLINK-3044,PAYLOAD,2023-06-07 02:25:38,15.08851962,0.0001136,53.2187,47.8001,86.2964,273.8158,9.9514e-05,1.297e-05,0.0,0 STARLINK-3044,1 49438U 21104AG  23158.10114191  .00001297  00000-0  99514-4 0  9994,2 49438  53.2187  47.8001 0001136  86.2964 273.8158 15.08851962 86959,6917.844,95.437,540.495,538.923,0.0
49438.0,STARLINK-3044,PAYLOAD,2023-06-07 15:08:44,15.08838217,0.0001237,53.2177,45.4216,90.3201,269.7933,0.00011655,1.567e-05,0.0,0 STARLINK-3044,1 49438U 21104AG  23158.63107007  .00001567  00000-0  11655-3 0  9999,2 49438  53.2177  45.4216 0001237  90.3201 269.7933 15.08838217 88104,6917.886,95.438,540.607,538.895,0.0
49438.0,STARLINK-3044,PAYLOAD,2023-06-07 21:30:16,15.08839026,0.0001168,53.2179,44.2321,93.8097,266.3029,0.0001266,1.728e-05,0.0,0 STARLINK-3044,1 49438U 21104AG  23158.89603004  .00001728  00000-0  12660-3 0  9991,2 49438  53.2179  44.2321 0001168  93.8097 266.3029 15.08839026 87077,6917.883,95.438,540.556,538.94,0.0
49438.0,STARLINK-3044,PAYLOAD,2023-06-07 23:05:40,15.08840565,0.0001092,53.2178,43.9348,90.2623,269.8495,0.00014698,2.052e-05,0.0,0 STARLINK-3044,1 49438U 21104AG  23158.96226940  .00002052  00000-0  14698-3 0  9993,2 49438  53.2178  43.9348 0001092  90.2623 269.8495 15.08840565 87089,6917.879,95.438,540.499,538.988,0.0
49438.0,STARLINK-3044,PAYLOAD,2023-06-08 21:21:04,15.08840832,0.0001147,53.2177,39.7721,93.3505,266.7618,7.7321e-05,9.43e-06,0.0,0 STARLINK-3044,1 49438U 21104AG  23159.88963004  .00000943  00000-0  77321-4 0  9994,2 49438  53.2177  39.7721 0001147  93.3505 266.7618 15.08840832 88294,6917.878,95.438,540.536,538.949,0.0
49438.0,STARLINK-3044,PAYLOAD,2023-06-09 08:28:45,15.0884201,0.0001053,53.2176,37.6907,92.4608,267.6505,2.4915e-05,1.09e-06,0.0,0 STARLINK-3044,1 49438U 21104AG  23160.35330901  .00000109  00000-0  24915-4 0  9997,2 49438  53.2176  37.6907 0001053  92.4608 267.6505 15.08842010 87290,6917.874,95.437,540.468,539.011,0.0
49438.0,STARLINK-3044,PAYLOAD,2023-06-09 16:25:41,15.08835213,0.0001112,53.2171,36.2055,95.242,264.8699,2.8302e-05,1.63e-06,0.0,0 STARLINK-3044,1 49438U 21104AG  23160.68451361  .00000163  00000-0  28302-4 0  9991,2 49438  53.2171  36.2055 0001112  95.2420 264.8699 15.08835213 88418,6917.895,95.438,540.529,538.991,0.0
49438.0,STARLINK-3044,PAYLOAD,2023-06-10 08:19:33,15.08840679,0.0001111,53.2176,33.2326,97.1541,262.9577,7.6995e-05,9.38e-06,0.0,0 STARLINK-3044,1 49438U 21104AG  23161.34691100  .00000938  00000-0  76995-4 0  9993,2 49438  53.2176  33.2326 0001111  97.1541 262.9577 15.08840679 87443,6917.878,95.438,540.512,538.975,0.0
49438.0,STARLINK-3044,PAYLOAD,2023-06-10 16:16:29,15.08836364,0.0001128,53.2188,31.7456,84.168,275.9441,4.4977e-05,4.28e-06,0.0,0 STARLINK-3044,1 49438U 21104AG  23161.67811434  .00000428  00000-0  44977-4 0  9992,2 49438  53.2188  31.7456 0001128  84.1680 275.9441 15.08836364 87496,6917.892,95.438,540.537,538.976,0.0
49438.0,STARLINK-3044,PAYLOAD,2023-06-11 01:48:47,15.08842327,0.0001205,53.2183,29.96,95.6373,264.4757,9.8278e-05,1.277e-05,0.0,0 STARLINK-3044,1 49438U 21104AG  23162.07555254  .00001277  00000-0  98278-4 0  9998,2 49438  53.2183  29.9600 0001205  95.6373 264.4757 15.08842327 88628,6917.873,95.437,540.572,538.905,0.0
49438.0,STARLINK-3044,PAYLOAD,2023-06-11 08:10:20,15.08839667,0.0001018,53.2191,28.7694,88.8721,271.2388,6.4919e-05,7.46e-06,0.0,0 STARLINK-3044,1 49438U 21104AG  23162.34051518  .00000746  00000-0  64919-4 0  9997,2 49438  53.2191  28.7694 0001018  88.8721 271.2388 15.08839667 87594,6917.881,95.438,540.451,539.042,0.0
49438.0,STARLINK-3044,PAYLOAD,2023-06-12 08:01:07,15.08848838,0.0001118,53.2199,24.3082,88.2386,271.8734,-2.0999e-06,-3.21e-06,0.0,0 STARLINK-3044,1 49438U 21104AG  23163.33411025 -.00000321  00000-0 -20999-5 0  9992,2 49438  53.2199  24.3082 0001118  88.2386 271.8734 15.08848838 88814,6917.853,95.437,540.492,538.945,0.0
49438.0,STARLINK-3044,PAYLOAD,2023-06-12 20:44:12,15.08836476,7.93e-05,53.2196,21.9296,87.3897,272.7185,0.00019323,2.789e-05,0.0,0 STARLINK-3044,1 49438U 21104AG  23163.86403471  .00002789  00000-0  19323-3 0  9991,2 49438  53.2196  21.9296 0000793  87.3897 272.7185 15.08836476 88899,6917.891,95.438,540.305,539.208,0.0
49438.0,STARLINK-3044,PAYLOAD,2023-06-13 14:13:27,15.08837266,9.95e-05,53.2183,18.6602,92.475,267.6356,6.9894e-05,8.25e-06,0.0,0 STARLINK-3044,1 49438U 21104AG  23164.59267685  .00000825  00000-0  69894-4 0  9995,2 49438  53.2183  18.6602 0000995  92.4750 267.6356 15.08837266 87933,6917.889,95.438,540.442,539.065,0.0
49438.0,STARLINK-3044,PAYLOAD,2023-06-13 20:34:59,15.08838796,9.07e-05,53.2185,17.4712,92.2421,267.8675,5.8908e-05,6.5e-06,0.0,0 STARLINK-3044,1 49438U 21104AG  23164.85763593  .00000650  00000-0  58908-4 0  9993,2 49438  53.2185  17.4712 0000907  92.2421 267.8675 15.08838796 87979,6917.884,95.438,540.377,539.122,0.0
49438.0,STARLINK-3044,PAYLOAD,2023-06-13 23:45:45,15.08844849,9.67e-05,53.2182,16.876,100.6801,259.43,2.7351e-05,1.48e-06,0.0,0 STARLINK-3044,1 49438U 21104AG  23164.99011264  .00000148  00000-0  27351-4 0  9999,2 49438  53.2182  16.8760 0000967 100.6801 259.4300 15.08844849 89064,6917.866,95.437,540.4,539.062,0.0
49438.0,STARLINK-3044,PAYLOAD,2023-06-14 14:04:14,15.08837234,9.89e-05,53.2183,14.2006,83.4506,276.6598,6.3662e-05,7.26e-06,0.0,0 STARLINK-3044,1 49438U 21104AG  23165.58627727  .00000726  00000-0  63662-4 0  9999,2 49438  53.2183  14.2006 0000989  83.4506 276.6598 15.08837234 88085,6917.889,95.438,540.438,539.07,0.0
49438.0,STARLINK-3044,PAYLOAD,2023-06-14 20:25:46,15.08839688,0.0001006,53.2185,13.0107,85.1602,274.9505,7.7095e-05,9.39e-06,0.0,0 STARLINK-3044,1 49438U 21104AG  23165.85123510  .00000939  00000-0  77095-4 0  9991,2 49438  53.2185  13.0107 0001006  85.1602 274.9505 15.08839688 88122,6917.881,95.438,540.442,539.05,0.0
49438.0,STARLINK-3044,PAYLOAD,2023-06-14 23:36:32,15.08843015,9.98e-05,53.2185,12.416,83.6908,276.4198,3.121e-05,2.09e-06,0.0,0 STARLINK-3044,1 49438U 21104AG  23165.98371445  .00000209  00000-0  31210-4 0  9996,2 49438  53.2185  12.4160 0000998  83.6908 276.4198 15.08843015 88141,6917.871,95.437,540.427,539.046,0.0
49438.0,STARLINK-3044,PAYLOAD,2023-06-15 17:05:47,15.08848266,9.8e-05,53.2183,9.1452,80.9778,279.1325,-9.4618e-05,-1.794e-05,0.0,0 STARLINK-3044,1 49438U 21104AG  23166.71235625 -.00001794  00000-0 -94618-4 0  9990,2 49438  53.2183   9.1452 0000980  80.9778 279.1325 15.08848266 89328,6917.855,95.437,540.398,539.042,0.0
49438.0,STARLINK-3044,PAYLOAD,2023-06-16 13:45:48,15.08841598,0.0001115,53.2187,5.2799,94.2147,265.8973,0.00010616,1.402e-05,0.0,0 STARLINK-3044,1 49438U 21104AG  23167.57347452  .00001402  00000-0  10616-3 0  9996,2 49438  53.2187   5.2799 0001115  94.2147 265.8973 15.08841598 88389,6917.876,95.437,540.512,538.969,0.0
49438.0,STARLINK-3044,PAYLOAD,2023-06-16 20:07:19,15.08852677,0.0001018,53.2177,4.0908,89.1436,270.9673,0.00016973,2.415e-05,0.0,0 STARLINK-3044,1 49438U 21104AG  23167.83842474  .00002415  00000-0  16973-3 0  9996,2 49438  53.2177   4.0908 0001018  89.1436 270.9673 15.08852677 88422,6917.842,95.437,540.411,539.002,0.0
49438.0,STARLINK-3044,PAYLOAD,2023-06-16 23:18:06,15.08857395,0.0001087,53.2184,3.4957,85.7854,274.3262,0.00024459,3.609e-05,0.0,0 STARLINK-3044,1 49438U 21104AG  23167.97090494  .00003609  00000-0  24459-3 0  9992,2 49438  53.2184   3.4957 0001087  85.7854 274.3262 15.08857395 89514,6917.827,95.436,540.444,538.94,0.0
